SPOT 6                  
1 38755U 12047A   25068.90355304  .00000795  00000+0  18069-3 0  9999
2 38755  98.1872 138.2657 0001036  88.9289 271.2029 14.58562037665372
PLEIADES 1B             
1 39019U 12068A   25068.85221149  .00000783  00000+0  17809-3 0  9997
2 39019  98.2023 145.4658 0001375 100.0404 260.0950 14.58592690653168
GOKTURK 2               
1 39030U 12073A   25068.86321775  .00001114  00000+0  17339-3 0  9990
2 39030  97.7222 283.7850 0001930  74.4058 285.7364 14.74803421656051
LANDSAT 8               
1 39084U 13008A   25068.88784591  .00000824  00000+0  19281-3 0  9994
2 39084  98.1954 140.8446 0001203  82.0861 278.0474 14.57119286630285
SARAL                   
1 39086U 13009A   25068.91217013  .00000266  00000+0  11378-3 0  9990
2 39086  98.5533 256.4502 0001494 185.1678 174.9491 14.32674230629126
GAOFEN-1                
1 39150U 13018A   25068.91978955  .00001442  00000+0  21387-3 0  9999
2 39150  97.9576 144.0229 0016966 326.7697  33.2446 14.76524510639738
VNREDSAT 1              
1 39160U 13021B   25068.89619537  .00001337  00000+0  25984-3 0  9999
2 39160  97.9609 133.5573 0001462 104.1377 255.9988 14.64679047632313
ARIRANG-5 (KOMPSAT-5)   
1 39227U 13042A   25068.87105579  .00004488  00000+0  32436-3 0  9990
2 39227  97.6193 257.0529 0001891 286.7971  73.3048 15.04554220634049
SKYSAT-A                
1 39418U 13066C   25068.74609735  .00006706  00000+0  42494-3 0  9997
2 39418  97.4483 127.2048 0024916 114.7192 245.6634 15.09005615618347
DUBAISAT-2              
1 39419U 13066D   25068.92312405  .00007741  00000+0  54740-3 0  9990
2 39419  97.4329  68.7813 0012514 173.1430 186.9970 15.05079985616436
GPM-CORE                
1 39574U 14009C   25068.89759246  .00014912  00000+0  32795-3 0  9998
2 39574  64.9781  63.3474 0012690 270.7900  89.1786 15.44114724626090
SENTINEL-1A             
1 39634U 14016A   25068.93336158  .00000028  00000+0  15693-4 0  9993
2 39634  98.1826  78.1853 0001335  90.6595 269.4758 14.59198531582315
KAZEOSAT 1              
1 39731U 14024A   25068.89706596  .00000477  00000+0  15839-3 0  9991
2 39731  98.3660 146.6302 0001135  86.2022 273.9297 14.42012480571647
ALOS-2                  
1 39766U 14029A   25068.83966517  .00003746  00000+0  50809-3 0  9997
2 39766  97.9193 167.6756 0001597 101.2907 258.8484 14.79484148582926
KAZEOSAT 2              
1 40010U 14033A   25068.90637661  .00001252  00000+0  15551-3 0  9994
2 40010  97.5866 287.1620 0010376  57.1579 303.0634 14.84215275580051
HODOYOSHI-4             
1 40011U 14033B   25068.87727445  .00002850  00000+0  32806-3 0  9998
2 40011  97.5600 271.4439 0025365  45.4869 314.8414 14.86260854579798
DEIMOS-2                
1 40013U 14033D   25068.83618885  .00003959  00000+0  40149-3 0  9993
2 40013  97.6485 313.4591 0002449  79.8573 280.2922 14.91438252568455
