[{"OBJECT_NAME":"SPOT 6","OBJECT_ID":"2012-047A","EPOCH":"2025-03-09T21:41:06.982656","MEAN_MOTION":14.58562037,"ECCENTRICITY":0.0001036,"INCLINATION":98.1872,"RA_OF_ASC_NODE":138.2657,"ARG_OF_PERICENTER":88.9289,"MEAN_ANOMALY":271.2029,"EPHEMERIS_TYPE":0,"CLASSIFICATION_TYPE":"U","NORAD_CAT_ID":38755,"ELEMENT_SET_NO":999,"REV_AT_EPOCH":66537,"BSTAR":0.00018069,"MEAN_MOTION_DOT":7.95e-6,"MEAN_MOTION_DDOT":0},{"OBJECT_NAME":"PLEIADES 1B","OBJECT_ID":"2012-068A","EPOCH":"2025-03-09T20:27:11.072736","MEAN_MOTION":14.5859269,"ECCENTRICITY":0.0001375,"INCLINATION":98.2023,"RA_OF_ASC_NODE":145.4658,"ARG_OF_PERICENTER":100.0404,"MEAN_ANOMALY":260.095,"EPHEMERIS_TYPE":0,"CLASSIFICATION_TYPE":"U","NORAD_CAT_ID":39019,"ELEMENT_SET_NO":999,"REV_AT_EPOCH":65316,"BSTAR":0.00017809,"MEAN_MOTION_DOT":7.83e-6,"MEAN_MOTION_DDOT":0},{"OBJECT_NAME":"GOKTURK 2","OBJECT_ID":"2012-073A","EPOCH":"2025-03-09T20:43:02.013600","MEAN_MOTION":14.74803421,"ECCENTRICITY":0.000193,"INCLINATION":97.7222,"RA_OF_ASC_NODE":283.785,"ARG_OF_PERICENTER":74.4058,"MEAN_ANOMALY":285.7364,"EPHEMERIS_TYPE":0,"CLASSIFICATION_TYPE":"U","NORAD_CAT_ID":39030,"ELEMENT_SET_NO":999,"REV_AT_EPOCH":65605,"BSTAR":0.00017339,"MEAN_MOTION_DOT":1.114e-5,"MEAN_MOTION_DDOT":0},{"OBJECT_NAME":"LANDSAT 8","OBJECT_ID":"2013-008A","EPOCH":"2025-03-09T21:18:29.886624","MEAN_MOTION":14.57119286,"ECCENTRICITY":0.0001203,"INCLINATION":98.1954,"RA_OF_ASC_NODE":140.8446,"ARG_OF_PERICENTER":82.0861,"MEAN_ANOMALY":278.0474,"EPHEMERIS_TYPE":0,"CLASSIFICATION_TYPE":"U","NORAD_CAT_ID":39084,"ELEMENT_SET_NO":999,"REV_AT_EPOCH":63028,"BSTAR":0.00019281,"MEAN_MOTION_DOT":8.24e-6,"MEAN_MOTION_DDOT":0},{"OBJECT_NAME":"SARAL","OBJECT_ID":"2013-009A","EPOCH":"2025-03-09T21:53:31.499232","MEAN_MOTION":14.3267423,"ECCENTRICITY":0.0001494,"INCLINATION":98.5533,"RA_OF_ASC_NODE":256.4502,"ARG_OF_PERICENTER":185.1678,"MEAN_ANOMALY":174.9491,"EPHEMERIS_TYPE":0,"CLASSIFICATION_TYPE":"U","NORAD_CAT_ID":39086,"ELEMENT_SET_NO":999,"REV_AT_EPOCH":62912,"BSTAR":0.00011378,"MEAN_MOTION_DOT":2.66e-6,"MEAN_MOTION_DDOT":0},{"OBJECT_NAME":"GAOFEN-1","OBJECT_ID":"2013-018A","EPOCH":"2025-03-09T22:04:29.817120","MEAN_MOTION":14.7652451,"ECCENTRICITY":0.0016966,"INCLINATION":97.9576,"RA_OF_ASC_NODE":144.0229,"ARG_OF_PERICENTER":326.7697,"MEAN_ANOMALY":33.2446,"EPHEMERIS_TYPE":0,"CLASSIFICATION_TYPE":"U","NORAD_CAT_ID":39150,"ELEMENT_SET_NO":999,"REV_AT_EPOCH":63973,"BSTAR":0.00021387,"MEAN_MOTION_DOT":1.442e-5,"MEAN_MOTION_DDOT":0},{"OBJECT_NAME":"VNREDSAT 1","OBJECT_ID":"2013-021B","EPOCH":"2025-03-09T21:30:31.279968","MEAN_MOTION":14.64679047,"ECCENTRICITY":0.0001462,"INCLINATION":97.9609,"RA_OF_ASC_NODE":133.5573,"ARG_OF_PERICENTER":104.1377,"MEAN_ANOMALY":255.9988,"EPHEMERIS_TYPE":0,"CLASSIFICATION_TYPE":"U","NORAD_CAT_ID":39160,"ELEMENT_SET_NO":999,"REV_AT_EPOCH":63231,"BSTAR":0.00025984,"MEAN_MOTION_DOT":1.337e-5,"MEAN_MOTION_DDOT":0},{"OBJECT_NAME":"ARIRANG-5 (KOMPSAT-5)","OBJECT_ID":"2013-042A","EPOCH":"2025-03-09T20:54:19.220256","MEAN_MOTION":15.0455422,"ECCENTRICITY":0.0001891,"INCLINATION":97.6193,"RA_OF_ASC_NODE":257.0529,"ARG_OF_PERICENTER":286.7971,"MEAN_ANOMALY":73.3048,"EPHEMERIS_TYPE":0,"CLASSIFICATION_TYPE":"U","NORAD_CAT_ID":39227,"ELEMENT_SET_NO":999,"REV_AT_EPOCH":63404,"BSTAR":0.00032436,"MEAN_MOTION_DOT":4.488e-5,"MEAN_MOTION_DDOT":0},{"OBJECT_NAME":"SKYSAT-A","OBJECT_ID":"2013-066C","EPOCH":"2025-03-09T17:54:22.811040","MEAN_MOTION":15.09005615,"ECCENTRICITY":0.0024916,"INCLINATION":97.4483,"RA_OF_ASC_NODE":127.2048,"ARG_OF_PERICENTER":114.7192,"MEAN_ANOMALY":245.6634,"EPHEMERIS_TYPE":0,"CLASSIFICATION_TYPE":"U","NORAD_CAT_ID":39418,"ELEMENT_SET_NO":999,"REV_AT_EPOCH":61834,"BSTAR":0.00042494,"MEAN_MOTION_DOT":6.706e-5,"MEAN_MOTION_DDOT":0},{"OBJECT_NAME":"DUBAISAT-2","OBJECT_ID":"2013-066D","EPOCH":"2025-03-09T22:09:17.917920","MEAN_MOTION":15.05079985,"ECCENTRICITY":0.0012514,"INCLINATION":97.4329,"RA_OF_ASC_NODE":68.7813,"ARG_OF_PERICENTER":173.143,"MEAN_ANOMALY":186.997,"EPHEMERIS_TYPE":0,"CLASSIFICATION_TYPE":"U","NORAD_CAT_ID":39419,"ELEMENT_SET_NO":999,"REV_AT_EPOCH":61643,"BSTAR":0.0005474,"MEAN_MOTION_DOT":7.741e-5,"MEAN_MOTION_DDOT":0},{"OBJECT_NAME":"GPM-CORE","OBJECT_ID":"2014-009C","EPOCH":"2025-03-09T21:32:31.988544","MEAN_MOTION":15.44114724,"ECCENTRICITY":0.001269,"INCLINATION":64.9781,"RA_OF_ASC_NODE":63.3474,"ARG_OF_PERICENTER":270.79,"MEAN_ANOMALY":89.1786,"EPHEMERIS_TYPE":0,"CLASSIFICATION_TYPE":"U","NORAD_CAT_ID":39574,"ELEMENT_SET_NO":999,"REV_AT_EPOCH":62609,"BSTAR":0.00032795,"MEAN_MOTION_DOT":0.00014912,"MEAN_MOTION_DDOT":0},{"OBJECT_NAME":"SENTINEL-1A","OBJECT_ID":"2014-016A","EPOCH":"2025-03-09T22:24:02.440512","MEAN_MOTION":14.59198531,"ECCENTRICITY":0.0001335,"INCLINATION":98.1826,"RA_OF_ASC_NODE":78.1853,"ARG_OF_PERICENTER":90.6595,"MEAN_ANOMALY":269.4758,"EPHEMERIS_TYPE":0,"CLASSIFICATION_TYPE":"U","NORAD_CAT_ID":39634,"ELEMENT_SET_NO":999,"REV_AT_EPOCH":58231,"BSTAR":1.5693e-5,"MEAN_MOTION_DOT":2.8e-7,"MEAN_MOTION_DDOT":0},{"OBJECT_NAME":"KAZEOSAT 1","OBJECT_ID":"2014-024A","EPOCH":"2025-03-09T21:31:46.498944","MEAN_MOTION":14.4201248,"ECCENTRICITY":0.0001135,"INCLINATION":98.366,"RA_OF_ASC_NODE":146.6302,"ARG_OF_PERICENTER":86.2022,"MEAN_ANOMALY":273.9297,"EPHEMERIS_TYPE":0,"CLASSIFICATION_TYPE":"U","NORAD_CAT_ID":39731,"ELEMENT_SET_NO":999,"REV_AT_EPOCH":57164,"BSTAR":0.00015839,"MEAN_MOTION_DOT":4.77e-6,"MEAN_MOTION_DDOT":0},{"OBJECT_NAME":"ALOS-2","OBJECT_ID":"2014-029A","EPOCH":"2025-03-09T20:09:07.070688","MEAN_MOTION":14.79484148,"ECCENTRICITY":0.0001597,"INCLINATION":97.9193,"RA_OF_ASC_NODE":167.6756,"ARG_OF_PERICENTER":101.2907,"MEAN_ANOMALY":258.8484,"EPHEMERIS_TYPE":0,"CLASSIFICATION_TYPE":"U","NORAD_CAT_ID":39766,"ELEMENT_SET_NO":999,"REV_AT_EPOCH":58292,"BSTAR":0.00050809,"MEAN_MOTION_DOT":3.746e-5,"MEAN_MOTION_DDOT":0},{"OBJECT_NAME":"KAZEOSAT 2","OBJECT_ID":"2014-033A","EPOCH":"2025-03-09T21:45:10.939104","MEAN_MOTION":14.84215275,"ECCENTRICITY":0.0010376,"INCLINATION":97.5866,"RA_OF_ASC_NODE":287.162,"ARG_OF_PERICENTER":57.1579,"MEAN_ANOMALY":303.0634,"EPHEMERIS_TYPE":0,"CLASSIFICATION_TYPE":"U","NORAD_CAT_ID":40010,"ELEMENT_SET_NO":999,"REV_AT_EPOCH":58005,"BSTAR":0.00015551,"MEAN_MOTION_DOT":1.252e-5,"MEAN_MOTION_DDOT":0},{"OBJECT_NAME":"HODOYOSHI-4","OBJECT_ID":"2014-033B","EPOCH":"2025-03-09T21:03:16.512480","MEAN_MOTION":14.86260854,"ECCENTRICITY":0.0025365,"INCLINATION":97.56,"RA_OF_ASC_NODE":271.4439,"ARG_OF_PERICENTER":45.4869,"MEAN_ANOMALY":314.8414,"EPHEMERIS_TYPE":0,"CLASSIFICATION_TYPE":"U","NORAD_CAT_ID":40011,"ELEMENT_SET_NO":999,"REV_AT_EPOCH":57979,"BSTAR":0.00032806,"MEAN_MOTION_DOT":2.85e-5,"MEAN_MOTION_DDOT":0},{"OBJECT_NAME":"DEIMOS-2","OBJECT_ID":"2014-033D","EPOCH":"2025-03-09T20:04:06.716640","MEAN_MOTION":14.91438252,"ECCENTRICITY":0.0002449,"INCLINATION":97.6485,"RA_OF_ASC_NODE":313.4591,"ARG_OF_PERICENTER":79.8573,"MEAN_ANOMALY":280.2922,"EPHEMERIS_TYPE":0,"CLASSIFICATION_TYPE":"U","NORAD_CAT_ID":40013,"ELEMENT_SET_NO":999,"REV_AT_EPOCH":56845,"BSTAR":0.00040149,"MEAN_MOTION_DOT":3.959e-5,"MEAN_MOTION_DDOT":0}]
